1 45415U 20019BH  23082.83478795  .00024399  00000-0  16513-2 0  9992
2 45415  53.0520 313.2592 0001042  60.6662 299.4430 15.06398822166822
1 45415U 20019BH  23082.90113245  .00015777  00000-0  10755-2 0  9998
2 45415  53.0522 312.9621 0000892  76.6637 283.4452 15.06407173166832
1 45415U 20019BH  23083.03382674  .00025354  00000-0  17146-2 0  9990
2 45415  53.0519 312.3636 0000927  78.2505 281.8587 15.06406499166852
1 45415U 20019BH  23083.89630038  .00031945  00000-0  21489-2 0  9992
2 45415  53.0519 308.4923 0000800 100.6086 259.4993 15.06484790166987
1 45415U 20019BH  23083.89630038  .00031945  00000-0  21489-2 0  9992
2 45415  53.0519 308.4923 0000800 100.6086 259.4993 15.06484790166987
1 45415U 20019BH  23084.89153074  .00002659  00000-0  19770-3 0  9994
2 45415  53.0521 304.0240 0000813  71.4025 288.7052 15.06321682167135
1 45415U 20019BH  23084.89153074  .00002659  00000-0  19770-3 0  9994
2 45415  53.0521 304.0240 0000813  71.4025 288.7052 15.06321682167135
1 45415U 20019BH  23085.88678062  .00014873  00000-0  10168-2 0  9995
2 45415  53.0528 299.5580 0000853  65.7922 294.3156 15.06343690167280
1 45415U 20019BH  23086.01947790  .00015615  00000-0  10663-2 0  9993
2 45415  53.0534 298.9618 0000946  72.7083 287.4009 15.06350287167304
1 45415U 20019BH  23086.61660125  .00021842  00000-0  14809-2 0  9998
2 45415  53.0531 296.2813 0000881  64.1156 295.9924 15.06394780167398
1 45415U 20019BH  23086.88198429  .00028821  00000-0  19446-2 0  9996
2 45415  53.0525 295.0889 0000802  52.2710 307.8352 15.06423677167439
1 45415U 20019BH  23086.88198429  .00028821  00000-0  19446-2 0  9996
2 45415  53.0525 295.0889 0000802  52.2710 307.8352 15.06423677167439
1 45415U 20019BH  23087.21371434  .00014345  00000-0  97919-3 0  9991
2 45415  53.0527 293.6005 0000917  52.4176 307.6896 15.06430147167486
1 45415U 20019BH  23087.54544863  .00011260  00000-0  77332-3 0  9995
2 45415  53.0528 292.1112 0000959  63.1180 296.9907 15.06414420167535
1 45415U 20019BH  23087.54544863  .00011260  00000-0  77332-3 0  9995
2 45415  53.0528 292.1112 0000959  63.1180 296.9907 15.06414420167535
1 45415U 20019BH  23087.87717825  .00037222  00000-0  25025-2 0  9998
2 45415  53.0523 290.6207 0000628  49.9399 310.1645 15.06431239167585
1 45415U 20019BH  23087.87717825  .00037222  00000-0  25025-2 0  9998
2 45415  53.0523 290.6207 0000628  49.9399 310.1645 15.06431239167585
1 45415U 20019BH  23088.80603225  .00036216  00000-0  24354-2 0  9996
2 45415  53.0519 286.4509 0001101  56.4758 303.6336 15.06435597167728
1 45415U 20019BH  23088.80603225  .00036216  00000-0  24354-2 0  9996
2 45415  53.0519 286.4509 0001101  56.4758 303.6336 15.06435597167728
1 45415U 20019BH  23089.27045080  .00019799  00000-0  13430-2 0  9997
2 45415  53.0523 284.3663 0000967  55.8148 304.2933 15.06437174167796
1 45415U 20019BH  23089.80120580  .00024922  00000-0  16831-2 0  9997
2 45415  53.0521 281.9830 0000988  51.9734 308.1344 15.06465987167875
1 45415U 20019BH  23089.93389308  .00027279  00000-0  18395-2 0  9991
2 45415  53.0521 281.3878 0001028  49.2085 310.8994 15.06473573167899
1 45415U 20019BH  23090.79641194  .00025504  00000-0  17247-2 0  9995
2 45415  53.0515 277.5162 0001621  55.7066 304.4076 15.06403810168028
1 45415U 20019BH  23091.32718869  .00013617  00000-0  93122-3 0  9998
2 45415  53.0499 275.1349 0001645  60.5907 299.5246 15.06401164168106
1 45415U 20019BH  23091.59257501  .00010511  00000-0  72335-3 0  9991
2 45415  53.0499 273.9432 0001745  57.4980 302.6178 15.06405384168144
1 45415U 20019BH  23091.79160834  .00016182  00000-0  11022-2 0  9990
2 45415  53.0517 273.0479 0000770  80.9169 279.1907 15.06419277168171
1 45415U 20019BH  23091.79160834  .00016182  00000-0  11022-2 0  9990
2 45415  53.0517 273.0479 0000770  80.9169 279.1907 15.06419277168171
1 45415U 20019BH  23092.18968797  .00005551  00000-0  39121-3 0  9997
2 45415  53.0548 271.2607 0000866 153.0420 207.0614 15.06404200168238
1 45415U 20019BH  23092.52143002 -.00005643  00000-0 -36043-3 0  9993
2 45415  53.0515 269.7706 0001034  95.6622 264.4484 15.06383677168288
1 45415U 20019BH  23092.58777588 -.00006746  00000-0 -43462-3 0  9999
2 45415  53.0515 269.4729 0001080  95.0661 265.0451 15.06383580168293
1 45415U 20019BH  23092.72047117 -.00000914  00000-0 -42490-4 0  9995
2 45415  53.0517 268.8776 0001072  87.4529 272.6583 15.06387513168312
1 45415U 20019BH  23093.18490371  .00019663  00000-0  13353-2 0  9993
2 45415  53.0516 266.7927 0001045  88.9129 271.1980 15.06398581168387
1 45415U 20019BH  23093.18490371  .00019663  00000-0  13353-2 0  9993
2 45415  53.0516 266.7927 0001045  88.9129 271.1980 15.06398581168387
1 45415U 20019BH  23093.84836563  .00026054  00000-0  17601-2 0  9995
2 45415  53.0512 263.8143 0001044  79.9484 280.1623 15.06430553168485
1 45415U 20019BH  23094.18009767 -.00004539  00000-0 -28609-3 0  9998
2 45415  53.0502 262.3288 0000700 231.3119 128.7807 15.06394639168536
1 45415U 20019BH  23094.57818721  .00011984  00000-0  82225-3 0  9993
2 45415  53.0512 260.5373 0000815 106.7768 253.3310 15.06389779168593
1 45415U 20019BH  23095.63972823  .00025637  00000-0  17321-2 0  9999
2 45415  53.0514 255.7714 0000947  91.0254 269.0844 15.06435345168757
1 45415U 20019BH  23095.70607329  .00026570  00000-0  17940-2 0  9997
2 45415  53.0513 255.4735 0000963  89.7320 270.3780 15.06439408168761
1 45415U 20019BH  23096.17049991  .00012323  00000-0  84404-3 0  9995
2 45415  53.0491 253.3895 0000990  47.2148 312.8924 15.06429277168830
1 45415U 20019BH  23096.43589467  .00010841  00000-0  74568-3 0  9994
2 45415  53.0518 252.1967 0001806  75.4465 284.6724 15.06393166168874
1 45415U 20019BH  23096.43589467  .00010841  00000-0  74568-3 0  9994
2 45415  53.0518 252.1967 0001806  75.4465 284.6724 15.06393166168874
1 45415U 20019BH  23096.70128634  .00020929  00000-0  14207-2 0  9990
2 45415  53.0519 251.0059 0001096  60.4823 299.6275 15.06375566168914
1 45415U 20019BH  23096.70128634  .00020929  00000-0  14207-2 0  9990
2 45415  53.0519 251.0059 0001096  60.4823 299.6275 15.06375566168914
1 45415U 20019BH  23097.43110167  .00027600  00000-0  18637-2 0  9997
2 45415  53.0520 247.7299 0001193  51.4854 308.6241 15.06417216169022
1 45415U 20019BH  23097.69648377  .00028179  00000-0  19014-2 0  9996
2 45415  53.0524 246.5382 0001205  52.5085 307.6013 15.06432704169067
1 45415U 20019BH  23098.55899348  .00022342  00000-0  15134-2 0  9993
2 45415  53.0528 242.6677 0001483  50.3968 309.7151 15.06415560169190
1 45415U 20019BH  23099.48782514  .00020780  00000-0  14078-2 0  9992
2 45415  53.0528 238.4959 0001194  72.4369 287.6751 15.06453541169332
1 45415U 20019BH  23099.75320026  .00025339  00000-0  17106-2 0  9998
2 45415  53.0526 237.3049 0001206  70.2496 289.8623 15.06470826169370
1 45415U 20019BH  23099.75320026  .00025339  00000-0  17106-2 0  9998
2 45415  53.0526 237.3049 0001206  70.2496 289.8623 15.06470826169370
1 45415U 20019BH  23100.35033430 -.00004136  00000-0 -25906-3 0  9999
2 45415  53.0523 234.6243 0001546  94.9561 265.1605 15.06378259169460
1 45415U 20019BH  23100.48303125  .00008952  00000-0  61956-3 0  9997
2 45415  53.0520 234.0291 0001383  99.1430 260.9716 15.06372081169480
1 45415U 20019BH  23100.74842595  .00028965  00000-0  19573-2 0  9998
2 45415  53.0521 232.8379 0001083 103.7455 256.3655 15.06365299169529
1 45415U 20019BH  23101.47824513  .00030883  00000-0  20825-2 0  9993
2 45415  53.0517 229.5613 0001070 106.2247 253.8859 15.06411081169632
1 45415U 20019BH  23101.47824513  .00030883  00000-0  20825-2 0  9993
2 45415  53.0517 229.5613 0001070 106.2247 253.8859 15.06411081169632
1 45415U 20019BH  23102.07537418  .00024936  00000-0  16867-2 0  9998
2 45415  53.0498 226.8844 0002261  59.7946 300.3266 15.06406564169727
1 45415U 20019BH  23102.60616078  .00027356  00000-0  18501-2 0  9993
2 45415  53.0517 224.4983 0001478  74.5327 285.5825 15.06363664169801
1 45415U 20019BH  23102.80520572  .00029826  00000-0  20144-2 0  9998
2 45415  53.0517 223.6043 0001012  71.5976 288.5123 15.06370395169836
1 45415U 20019BH  23103.07059629  .00029584  00000-0  19974-2 0  9998
2 45415  53.0515 222.4136 0001045  65.1289 294.9808 15.06385928169879
1 45415U 20019BH  23104.46388247  .00006004  00000-0  42180-3 0  9991
2 45415  53.0524 216.1585 0000896  66.8549 293.2534 15.06381392170081
1 45415U 20019BH  23104.66292623  .00025377  00000-0  17170-2 0  9999
2 45415  53.0525 215.2648 0001211  86.4539 273.6588 15.06386989170113
1 45415U 20019BH  23105.32638670  .00041115  00000-0  27598-2 0  9992
2 45415  53.0528 212.2863 0001178  86.3121 273.8002 15.06443628170218
1 45415U 20019BH  23105.59176378  .00041683  00000-0  27958-2 0  9993
2 45415  53.0527 211.0948 0001187  84.1709 275.9416 15.06465714170252
1 45415U 20019BH  23106.52063690  .00019897  00000-0  13525-2 0  9996
2 45415  53.0528 206.9251 0001233 110.9520 249.1600 15.06356020170396
1 45415U 20019BH  23106.52063690  .00019897  00000-0  13525-2 0  9996
2 45415  53.0528 206.9251 0001233 110.9520 249.1600 15.06356020170396
1 45415U 20019BH  23106.78603356  .00037616  00000-0  25330-2 0  9999
2 45415  53.0524 205.7335 0001212 107.8083 252.3038 15.06367303170430
1 45415U 20019BH  23107.58219510  .00038172  00000-0  25658-2 0  9994
2 45415  53.0523 202.1587 0001195 103.5416 256.5706 15.06427208170554
1 45415U 20019BH  23107.78123046  .00039383  00000-0  26450-2 0  9990
2 45415  53.0526 201.2634 0001205  98.0274 262.0852 15.06443889170582
1 45415U 20019BH  23108.37836370  .00012630  00000-0  86548-3 0  9998
2 45415  53.0518 198.5837 0001194  90.1815 269.9310 15.06390672170673
1 45415U 20019BH  23108.64375469  .00030550  00000-0  20613-2 0  9996
2 45415  53.0531 197.3920 0000961  86.3173 273.7926 15.06394247170716
1 45415U 20019BH  23108.97548764  .00037059  00000-0  24926-2 0  9994
2 45415  53.0531 195.9034 0001024  81.4933 278.6172 15.06417873170760
1 45415U 20019BH  23109.37356054  .00030111  00000-0  20296-2 0  9996
2 45415  53.0530 194.1168 0001078  76.9940 283.1170 15.06439277170822
